STARLINK-1638_new
1 16134C 20057T   21326.15107059 -.00022933  00000-0 -15365-2 0  3261
2 16134  53.0519 118.0676 0001529  81.8762 190.1582 15.06422347    12
STARLINK-1638_old
1 26134C 20057T   21325.15540067  .00001401  00000-0  93867-4 0  3259
2 26134  53.0511 122.5375 0001596  82.5048 186.9690 15.06402256    19
